OBJECT_NAME,OBJECT_ID,EPOCH,MEAN_MOTION,ECCENTRICITY,INCLINATION,RA_OF_ASC_NODE,ARG_OF_PERICENTER,MEAN_ANOMALY,EPHEMERIS_TYPE,CLASSIFICATION_TYPE,NORAD_CAT_ID,ELEMENT_SET_NO,REV_AT_EPOCH,BSTAR,MEAN_MOTION_DOT,MEAN_MOTION_DDOT
ONEWEB-0275,2021-060AC,2026-07-11T00:23:43.113408,13.16595909,.0002007,87.9085,224.0427,96.8120,263.3239,0,U,48993,999,24269,.13822E-3,.66E-6,0
ONEWEB-0276,2021-060AD,2026-07-10T01:28:56.732736,13.16593596,.00019254,87.9078,224.2318,94.5446,265.5905,0,U,48994,999,24258,.1180392E-3,.58E-6,0
ONEWEB-0277,2021-060AE,2026-07-11T01:29:51.523296,13.16594725,.000212,87.9071,224.0405,99.8373,260.2998,0,U,48995,999,24270,.12849E-3,.62E-6,0
ONEWEB-0278,2021-060AF,2026-07-10T01:33:30.460032,13.16593092,.00022578,87.9078,224.2302,90.4499,269.6891,0,U,48996,999,24270,.26632107E-4,.23E-6,0
ONEWEB-0279,2021-060AG,2026-07-11T01:27:34.155936,13.16592763,.0001728,87.9070,224.0302,99.2573,260.8754,0,U,48997,999,24276,.5201E-3,.212E-5,0
ONEWEB-0280,2021-060AH,2026-07-11T01:49:13.427040,13.16594487,.0002433,87.9080,224.0309,96.7860,263.3548,0,U,48998,999,24270,.31605E-3,.134E-5,0
ONEWEB-0281,2021-060AJ,2026-07-10T07:42:50.804640,13.16593640,.00020937,87.9084,224.1771,93.0920,267.0450,0,U,48999,999,24267,.31337408E-3,.133E-5,0
ONEWEB-0282,2021-060AK,2026-07-11T00:51:05.253408,13.16594666,.000226,87.9063,224.0429,97.2963,262.8425,0,U,49000,999,24274,-.10384E-3,-.27E-6,0
ONEWEB-0283,2021-060AL,2026-07-11T00:35:07.156032,13.16593295,.000201,87.9075,224.0434,99.3667,260.7691,0,U,49001,999,24275,.20238E-4,.21E-6,0
ONEWEB-0284,2021-060AM,2026-07-11T00:26:00.911040,13.16594075,.0002421,87.9080,224.0396,92.8622,267.2786,0,U,49002,999,24273,.11558E-3,.57E-6,0
ONEWEB-0285,2021-075A,2026-07-10T09:19:56.237376,13.12444466,.00017728,87.8964,346.0491,88.6093,271.5239,0,U,49075,999,23825,-.7775018E-3,-.267E-5,0
ONEWEB-0286,2021-075B,2026-07-10T08:54:07.080192,13.12441589,.00017702,87.8947,346.0673,87.3246,272.8085,0,U,49076,999,23760,-.75710672E-3,-.26E-5,0
ONEWEB-0287,2021-075C,2026-07-09T17:16:21.057024,13.17647814,.0002003,87.9136,1.3828,79.5145,280.6212,0,U,49077,999,23659,.16181827E-3,.76E-6,0
ONEWEB-0288,2021-075D,2026-07-09T15:52:07.778496,13.12441173,.00019798,87.8959,346.1865,90.4444,269.6912,0,U,49078,999,23813,.9451697E-3,.353E-5,0
ONEWEB-0289,2021-075E,2026-07-10T10:36:22.601664,13.17610101,.00019589,87.9140,1.2570,97.6163,262.5191,0,U,49079,999,23726,.12860196E-3,.63E-6,0
ONEWEB-0290,2021-075F,2026-07-10T09:57:30.369312,13.17650274,.00022825,87.9138,1.2346,98.8237,261.3153,0,U,49080,999,23667,.97200739E-4,.51E-6,0
ONEWEB-0291,2021-075G,2026-07-10T09:35:38.585760,13.17646726,.00021549,87.9138,1.2442,85.5647,274.5731,0,U,49081,999,23666,.1895981E-3,.86E-6,0
ONEWEB-0293,2021-075H,2026-07-10T10:12:04.688064,13.17650176,.0001986,87.9132,1.2417,92.6934,267.4425,0,U,49082,999,23669,.10243568E-3,.53E-6,0
ONEWEB-0294,2021-075J,2026-07-09T16:01:53.516064,13.12442268,.000215,87.8963,346.1890,99.4647,260.6725,0,U,49083,999,23752,.6495348E-3,.246E-5,0
ONEWEB-0295,2021-075K,2026-07-10T10:10:52.352256,13.17649743,.00020599,87.9137,1.2458,84.2425,275.8941,0,U,49084,999,23665,.33967937E-4,.26E-6,0
ONEWEB-0296,2021-075L,2026-07-09T17:22:24.234240,13.12443740,.00021114,87.8967,346.1863,88.0069,272.1302,0,U,49085,999,23753,.12780955E-2,.473E-5,0
ONEWEB-0297,2021-075M,2026-07-10T10:34:20.322336,13.12441333,.00018685,87.8952,346.0512,92.1527,267.9816,0,U,49086,999,23823,-.11672757E-3,-.29E-6,0
ONEWEB-0298,2021-075N,2026-07-10T10:17:10.066272,13.17648471,.00017471,87.9137,1.2435,88.8317,271.3015,0,U,49087,999,23668,.13976788E-3,.67E-6,0
ONEWEB-0299,2021-075P,2026-07-09T17:55:14.104128,13.17647788,.00018946,87.9146,1.3614,86.5254,273.6095,0,U,49088,999,23657,.11671324E-4,.17E-6,0
ONEWEB-0300,2021-075Q,2026-07-10T10:23:21.880032,13.12441606,.00014758,87.8964,346.0351,90.6395,269.4903,0,U,49089,999,23825,.66887991E-3,.253E-5,0
ONEWEB-0301,2021-075R,2026-07-10T10:00:11.409408,13.12443190,.00014904,87.8962,346.0355,98.0696,262.0602,0,U,49090,999,23761,.13043123E-2,.482E-5,0
ONEWEB-0302,2021-075S,2026-07-10T09:40:40.368000,13.12442330,.00021818,87.8959,346.0510,95.4531,264.6847,0,U,49091,999,23759,.31883202E-3,.127E-5,0
ONEWEB-0304,2021-075T,2026-07-10T09:42:54.901440,13.17647915,.00019793,87.9141,1.2510,87.0895,273.0463,0,U,49092,999,23663,.94754886E-4,.5E-6,0
ONEWEB-0305,2021-075U,2026-07-09T17:09:03.807360,13.17647664,.00020186,87.9146,1.3743,80.3165,279.8195,0,U,49093,999,23657,.46542001E-4,.31E-6,0
ONEWEB-0308,2021-075V,2026-07-10T09:30:54.237312,13.12443574,.00018429,87.8960,346.0451,97.3959,262.7379,0,U,49094,999,23760,-.18278978E-3,-.53E-6,0
